<?xml version="1.0" encoding="UTF-8"?>
<kml xmlns="http://www.opengis.net/kml/2.2">
  <Document>
    <name>Jakarta</name>
    <Style id="poly-000000-1200-77-nodesc-normal">
      <LineStyle>
        <color>ff000000</color>
        <width>1.2</width>
      </LineStyle>
      <PolyStyle>
        <color>4d000000</color>
        <fill>1</fill>
        <outline>1</outline>
      </PolyStyle>
      <BalloonStyle>
        <text><![CDATA[<h3>$[name]</h3>]]></text>
      </BalloonStyle>
    </Style>
    <Style id="poly-000000-1200-77-nodesc-highlight">
      <LineStyle>
        <color>ff000000</color>
        <width>1.8</width>
      </LineStyle>
      <PolyStyle>
        <color>4d000000</color>
        <fill>1</fill>
        <outline>1</outline>
      </PolyStyle>
      <BalloonStyle>
        <text><![CDATA[<h3>$[name]</h3>]]></text>
      </BalloonStyle>
    </Style>
    <StyleMap id="poly-000000-1200-77-nodesc">
      <Pair>
        <key>normal</key>
        <styleUrl>#poly-000000-1200-77-nodesc-normal</styleUrl>
      </Pair>
      <Pair>
        <key>highlight</key>
        <styleUrl>#poly-000000-1200-77-nodesc-highlight</styleUrl>
      </Pair>
    </StyleMap>
    <Placemark>
      <name>DKI Jakarta</name>
      <styleUrl>#poly-000000-1200-77-nodesc</styleUrl>
      <Polygon>
        <outerBoundaryIs>
          <LinearRing>
            <tessellate>1</tessellate>
            <coordinates>
              106.892346,-6.1321301,0
              106.8841063,-6.1266684,0
              106.8617903,-6.1222307,0
              106.8185317,-6.1324715,0
              106.8144118,-6.1297406,0
              106.7993056,-6.1334956,0
              106.7845427,-6.1321301,0
              106.7845427,-6.1352024,0
              106.7941557,-6.1522699,0
              106.786946,-6.1700196,0
              106.7958724,-6.1795768,0
              106.7962157,-6.1939124,0
              106.8010222,-6.2058584,0
              106.8150984,-6.2256541,0
              106.8257414,-6.2375994,0
              106.8432509,-6.2440838,0
              106.8652235,-6.24306,0
              106.8765532,-6.245449,0
              106.8782698,-6.2420361,0
              106.8734633,-6.2218998,0
              106.8727767,-6.2027866,0
              106.8751799,-6.1928885,0
              106.8782698,-6.1672889,0
              106.8885695,-6.1505632,0
              106.892346,-6.1321301,0
            </coordinates>
          </LinearRing>
        </outerBoundaryIs>
      </Polygon>
    </Placemark>
  </Document>
</kml>
