<?xml version="1.0" encoding="UTF-8"?>
<kml xmlns="http://www.opengis.net/kml/2.2">
  <Document>
    <name>Kota Administrasi Depok</name>
    <description/>
    <Style id="poly-000000-1200-77-nodesc-normal">
      <LineStyle>
        <color>ff000000</color>
        <width>1.2</width>
      </LineStyle>
      <PolyStyle>
        <color>4d000000</color>
        <fill>1</fill>
        <outline>1</outline>
      </PolyStyle>
      <BalloonStyle>
        <text><![CDATA[<h3>$[name]</h3>]]></text>
      </BalloonStyle>
    </Style>
    <Style id="poly-000000-1200-77-nodesc-highlight">
      <LineStyle>
        <color>ff000000</color>
        <width>1.8</width>
      </LineStyle>
      <PolyStyle>
        <color>4d000000</color>
        <fill>1</fill>
        <outline>1</outline>
      </PolyStyle>
      <BalloonStyle>
        <text><![CDATA[<h3>$[name]</h3>]]></text>
      </BalloonStyle>
    </Style>
    <StyleMap id="poly-000000-1200-77-nodesc">
      <Pair>
        <key>normal</key>
        <styleUrl>#poly-000000-1200-77-nodesc-normal</styleUrl>
      </Pair>
      <Pair>
        <key>highlight</key>
        <styleUrl>#poly-000000-1200-77-nodesc-highlight</styleUrl>
      </Pair>
    </StyleMap>
    <Folder>
      <name>Lapisan tanpa judul</name>
      <Placemark>
        <name>Depok</name>
        <styleUrl>#poly-000000-1200-77-nodesc</styleUrl>
        <Polygon>
          <outerBoundaryIs>
            <LinearRing>
              <tessellate>1</tessellate>
              <coordinates>
                106.7207277,-6.3596132,0
                106.7265642,-6.3886152,0
                106.7336023,-6.4213685,0
                106.7370355,-6.4348445,0
                106.7978036,-6.4380855,0
                106.8129098,-6.4590662,0
                106.8240678,-6.4595779,0
                106.829046,-6.4551431,0
                106.840204,-6.4479789,0
                106.8355691,-6.4336504,0
                106.8523919,-6.4374032,0
                106.8549669,-6.4577017,0
                106.8741929,-6.4609425,0
                106.8807161,-6.4522433,0
                106.9004571,-6.4196626,0
                106.91522,-6.4159097,0
                106.9239747,-6.4005567,0
                106.8997705,-6.4002156,0
                106.9109285,-6.3930507,0
                106.9267213,-6.3657549,0
                106.9181383,-6.3463058,0
                106.8978822,-6.3695082,0
                106.8601167,-6.3476707,0
                106.840204,-6.3387989,0
                106.8395173,-6.3510829,0
                106.7928254,-6.3647313,0
                106.8127382,-6.3142302,0
                106.7794359,-6.3142302,0
                106.773256,-6.3558599,0
                106.7578065,-6.360978,0
                106.7207277,-6.3596132,0
              </coordinates>
            </LinearRing>
          </outerBoundaryIs>
        </Polygon>
      </Placemark>
    </Folder>
  </Document>
</kml>
