<?xml version="1.0" encoding="UTF-8"?>
<kml xmlns="http://www.opengis.net/kml/2.2">
  <Document>
    <name>Taman Kota Jakarta</name>
    <description/>
    <Style id="poly-000000-1200-77-nodesc-normal">
      <LineStyle>
        <color>ff000000</color>
        <width>1.2</width>
      </LineStyle>
      <PolyStyle>
        <color>4d000000</color>
        <fill>1</fill>
        <outline>1</outline>
      </PolyStyle>
      <BalloonStyle>
        <text><![CDATA[<h3>$[name]</h3>]]></text>
      </BalloonStyle>
    </Style>
    <Style id="poly-000000-1200-77-nodesc-highlight">
      <LineStyle>
        <color>ff000000</color>
        <width>1.8</width>
      </LineStyle>
      <PolyStyle>
        <color>4d000000</color>
        <fill>1</fill>
        <outline>1</outline>
      </PolyStyle>
      <BalloonStyle>
        <text><![CDATA[<h3>$[name]</h3>]]></text>
      </BalloonStyle>
    </Style>
    <StyleMap id="poly-000000-1200-77-nodesc">
      <Pair>
        <key>normal</key>
        <styleUrl>#poly-000000-1200-77-nodesc-normal</styleUrl>
      </Pair>
      <Pair>
        <key>highlight</key>
        <styleUrl>#poly-000000-1200-77-nodesc-highlight</styleUrl>
      </Pair>
    </StyleMap>
    <Folder>
      <name>Taman Monas</name>
      <Placemark>
        <name>Taman Monas</name>
        <styleUrl>#poly-000000-1200-77-nodesc</styleUrl>
        <Polygon>
          <outerBoundaryIs>
            <LinearRing>
              <tessellate>1</tessellate>
              <coordinates>
                106.8232853,-6.171597,0
                106.8231995,-6.1802583,0
                106.8310101,-6.1800876,0
                106.8313105,-6.1794903,0
                106.8297226,-6.1777836,0
                106.8300231,-6.173389,0
                106.8289931,-6.1728343,0
                106.8294222,-6.1718103,0
                106.8289073,-6.171469,0
                106.8232853,-6.171597,0
              </coordinates>
            </LinearRing>
          </outerBoundaryIs>
        </Polygon>
      </Placemark>
      <Placemark>
        <name>Glora Bung Karno</name>
        <styleUrl>#poly-000000-1200-77-nodesc</styleUrl>
        <Polygon>
          <outerBoundaryIs>
            <LinearRing>
              <tessellate>1</tessellate>
              <coordinates>
                106.8062112,-6.2128615,0
                106.8051383,-6.2129681,0
                106.7982075,-6.214696,0
                106.7984006,-6.2175757,0
                106.7983791,-6.2206901,0
                106.8030569,-6.2226313,0
                106.8048164,-6.2247004,0
                106.8087647,-6.2220553,0
                106.808357,-6.2213941,0
                106.8084213,-6.2158052,0
                106.8063829,-6.2157412,0
                106.8060824,-6.214632,0
                106.8063614,-6.21444,0
                106.806297,-6.2133308,0
                106.8062112,-6.2128615,0
              </coordinates>
            </LinearRing>
          </outerBoundaryIs>
        </Polygon>
      </Placemark>
      <Placemark>
        <name>Kebun Binatang Ragunan</name>
        <styleUrl>#poly-000000-1200-77-nodesc</styleUrl>
        <Polygon>
          <outerBoundaryIs>
            <LinearRing>
              <tessellate>1</tessellate>
              <coordinates>
                106.8230505,-6.3062638,0
                106.8205614,-6.3064771,0
                106.8207331,-6.305624,0
                106.8159266,-6.3050268,0
                106.8168707,-6.3069463,0
                106.8160553,-6.3078848,0
                106.8155832,-6.310572,0
                106.8171711,-6.3105294,0
                106.8170424,-6.3114252,0
                106.8176861,-6.3115105,0
                106.817729,-6.3140271,0
                106.8163986,-6.3141551,0
                106.816184,-6.3169703,0
                106.8248529,-6.3179087,0
                106.8255825,-6.3112545,0
                106.8266125,-6.3113825,0
                106.8270416,-6.3087805,0
                106.8244667,-6.3084393,0
                106.8246813,-6.3062638,0
                106.8230505,-6.3062638,0
              </coordinates>
            </LinearRing>
          </outerBoundaryIs>
        </Polygon>
      </Placemark>
      <Placemark>
        <name>Taman Mini Indonesia Indah</name>
        <styleUrl>#poly-000000-1200-77-nodesc</styleUrl>
        <Polygon>
          <outerBoundaryIs>
            <LinearRing>
              <tessellate>1</tessellate>
              <coordinates>
                106.889041,-6.3040418,0
                106.8890316,-6.3040578,0
                106.8889807,-6.3040391,0
                106.8889861,-6.3040151,0
                106.8889726,-6.3040178,0
                106.888974,-6.3039978,0
                106.8889565,-6.3039978,0
                106.8889606,-6.3039791,0
                106.8889069,-6.3039764,0
                106.888856,-6.3039871,0
                106.8888211,-6.3040084,0
                106.8887688,-6.3040471,0
                106.8887151,-6.3041257,0
                106.888687,-6.3042231,0
                106.8886883,-6.3043404,0
                106.8887353,-6.304431,0
                106.8888211,-6.304515,0
                106.8888385,-6.3044936,0
                106.8888962,-6.304523,0
                106.8889673,-6.304523,0
                106.8889592,-6.304499,0
                106.8890652,-6.3044697,0
                106.8890504,-6.304455,0
                106.8890772,-6.3044363,0
                106.8891094,-6.304443,0
                106.8891349,-6.304423,0
                106.8891819,-6.3043204,0
                106.8891725,-6.3042057,0
                106.8891135,-6.3041671,0
                106.8890933,-6.3041431,0
                106.8891202,-6.3041137,0
                106.889041,-6.3040418,0
              </coordinates>
            </LinearRing>
          </outerBoundaryIs>
        </Polygon>
      </Placemark>
      <Placemark>
        <name>Tebet Eco Park</name>
        <styleUrl>#poly-000000-1200-77-nodesc</styleUrl>
        <Polygon>
          <outerBoundaryIs>
            <LinearRing>
              <tessellate>1</tessellate>
              <coordinates>
                106.8532514,-6.2347084,0
                106.8528545,-6.2348257,0
                106.8525755,-6.2333432,0
                106.8512452,-6.2335565,0
                106.8512988,-6.2330873,0
                106.8509233,-6.2327993,0
                106.8507194,-6.2333006,0
                106.850698,-6.2338125,0
                106.8508053,-6.2343778,0
                106.8513417,-6.2347724,0
                106.8523502,-6.2353803,0
                106.8527365,-6.2360309,0
                106.8517494,-6.2399024,0
                106.852715,-6.2420781,0
                106.8539166,-6.2420035,0
                106.8535519,-6.2415982,0
                106.8530583,-6.240809,0
                106.8528974,-6.2397104,0
                106.8531978,-6.2385053,0
                106.8534982,-6.2374601,0
                106.853584,-6.2366068,0
                106.8532514,-6.2347084,0
              </coordinates>
            </LinearRing>
          </outerBoundaryIs>
        </Polygon>
      </Placemark>
    </Folder>
  </Document>
</kml>
